[{"OBJECT_NAME":"CFOSAT","OBJECT_ID":"2018-083A","EPOCH":"2026-03-09T23:32:27.859200","MEAN_MOTION":15.16355885,"ECCENTRICITY":0.000152,"INCLINATION":97.364,"RA_OF_ASC_NODE":76.4206,"ARG_OF_PERICENTER":123.6668,"MEAN_ANOMALY":236.471,"EPHEMERIS_TYPE":0,"CLASSIFICATION_TYPE":"U","NORAD_CAT_ID":43662,"ELEMENT_SET_NO":999,"REV_AT_EPOCH":40740,"BSTAR":0.00010107599,"MEAN_MOTION_DOT":1.896e-5,"MEAN_MOTION_DDOT":0},{"OBJECT_NAME":"STARLINK-3711","OBJECT_ID":"2022-029AV","EPOCH":"2026-03-09T23:28:15.759552","MEAN_MOTION":15.14150134,"ECCENTRICITY":6.042e-5,"INCLINATION":53.2142,"RA_OF_ASC_NODE":66.1332,"ARG_OF_PERICENTER":49.6209,"MEAN_ANOMALY":310.4839,"EPHEMERIS_TYPE":0,"CLASSIFICATION_TYPE":"U","NORAD_CAT_ID":52131,"ELEMENT_SET_NO":999,"REV_AT_EPOCH":22100,"BSTAR":0.0018381126,"MEAN_MOTION_DOT":0.00033758,"MEAN_MOTION_DDOT":0}]
